{
  "type": "FeatureCollection",
  "features": [
    {
      "type": "Feature",
      "properties": {
        "norad_id": 67145,
        "name": "KUIPER-00204",
        "group": "last-30-days",
        "lat": 41.80392500612725,
        "lon": 104.20178680956435,
        "alt_km": 449.4307699786159,
        "timestamp": "2025-12-26T07:29:17.197205+00:00",
        "meta_object_name": "KUIPER-00204",
        "meta_object_id": "2025-301N",
        "meta_epoch": "2025-12-25T22:00:01.999584",
        "meta_mean_motion": 15.36531871,
        "meta_eccentricity": 0.00019708,
        "meta_inclination": 51.8746,
        "meta_ra_of_asc_node": 61.4998,
        "meta_arg_of_pericenter": 77.0156,
        "meta_mean_anomaly": 312.8961,
        "meta_ephemeris_type": 0,
        "meta_classification_type": "U",
        "meta_norad_cat_id": 67145,
        "meta_element_set_no": 999,
        "meta_rev_at_epoch": 250,
        "meta_bstar": 0.00036166684,
        "meta_mean_motion_dot": 0.0001273,
        "meta_mean_motion_ddot": 0,
        "tle_line1": "1 67145U 25301N   25359.91668981  .00012730  00000+0  36167-3 0  9994",
        "tle_line2": "2 67145  51.8746  61.4998 0001970  77.0156 312.8961 15.36531871  2503"
      },
      "geometry": {
        "type": "Point",
        "coordinates": [
          104.20178680956435,
          41.80392500612725
        ]
      }
    },
    {
      "type": "Feature",
      "properties": {
        "norad_id": 67146,
        "name": "KUIPER-00210",
        "group": "last-30-days",
        "lat": -22.65966160176875,
        "lon": 40.62758125730385,
        "alt_km": 473.78886339632663,
        "timestamp": "2025-12-26T07:29:17.197216+00:00",
        "meta_object_name": "KUIPER-00210",
        "meta_object_id": "2025-301P",
        "meta_epoch": "2025-12-25T22:00:01.999584",
        "meta_mean_motion": 15.34155631,
        "meta_eccentricity": 0.00105357,
        "meta_inclination": 51.86,
        "meta_ra_of_asc_node": 61.6816,
        "meta_arg_of_pericenter": 149.0517,
        "meta_mean_anomaly": 156.9944,
        "meta_ephemeris_type": 0,
        "meta_classification_type": "U",
        "meta_norad_cat_id": 67146,
        "meta_element_set_no": 999,
        "meta_rev_at_epoch": 255,
        "meta_bstar": 0.00016024771,
        "meta_mean_motion_dot": 5.007e-05,
        "meta_mean_motion_ddot": 0,
        "tle_line1": "1 67146U 25301P   25359.91668981  .00005007  00000+0  16025-3 0  9995",
        "tle_line2": "2 67146  51.8600  61.6816 0010535 149.0517 156.9944 15.34155631  2559"
      },
      "geometry": {
        "type": "Point",
        "coordinates": [
          40.62758125730385,
          -22.65966160176875
        ]
      }
    },
    {
      "type": "Feature",
      "properties": {
        "norad_id": 67147,
        "name": "KUIPER-00221",
        "group": "last-30-days",
        "lat": 21.536375545785507,
        "lon": 77.71779370149996,
        "alt_km": 456.10414335041605,
        "timestamp": "2025-12-26T07:29:17.197228+00:00",
        "meta_object_name": "KUIPER-00221",
        "meta_object_id": "2025-301Q",
        "meta_epoch": "2025-12-25T22:00:01.999584",
        "meta_mean_motion": 15.35722801,
        "meta_eccentricity": 0.00051064,
        "meta_inclination": 51.872,
        "meta_ra_of_asc_node": 61.5679,
        "meta_arg_of_pericenter": 112.7419,
        "meta_mean_anomaly": 248.286,
        "meta_ephemeris_type": 0,
        "meta_classification_type": "U",
        "meta_norad_cat_id": 67147,
        "meta_element_set_no": 999,
        "meta_rev_at_epoch": 187,
        "meta_bstar": 0.00027856071,
        "meta_mean_motion_dot": 9.457e-05,
        "meta_mean_motion_ddot": 0,
        "tle_line1": "1 67147U 25301Q   25359.91668981  .00009457  00000+0  27856-3 0  9993",
        "tle_line2": "2 67147  51.8720  61.5679 0005106 112.7419 248.2860 15.35722801  1871"
      },
      "geometry": {
        "type": "Point",
        "coordinates": [
          77.71779370149996,
          21.536375545785507
        ]
      }
    },
    {
      "type": "Feature",
      "properties": {
        "norad_id": 67148,
        "name": "KUIPER-00232",
        "group": "last-30-days",
        "lat": 45.10285399281406,
        "lon": 111.59898450895868,
        "alt_km": 448.6833105764108,
        "timestamp": "2025-12-26T07:29:17.197238+00:00",
        "meta_object_name": "KUIPER-00232",
        "meta_object_id": "2025-301R",
        "meta_epoch": "2025-12-25T22:00:01.999584",
        "meta_mean_motion": 15.36693668,
        "meta_eccentricity": 0.00015407,
        "meta_inclination": 51.8744,
        "meta_ra_of_asc_node": 61.4915,
        "meta_arg_of_pericenter": 51.6495,
        "meta_mean_anomaly": 344.3151,
        "meta_ephemeris_type": 0,
        "meta_classification_type": "U",
        "meta_norad_cat_id": 67148,
        "meta_element_set_no": 999,
        "meta_rev_at_epoch": 227,
        "meta_bstar": 0.00035954579,
        "meta_mean_motion_dot": 0.00012721,
        "meta_mean_motion_ddot": 0,
        "tle_line1": "1 67148U 25301R   25359.91668981  .00012721  00000+0  35955-3 0  9991",
        "tle_line2": "2 67148  51.8744  61.4915 0001540  51.6495 344.3151 15.36693668  2278"
      },
      "geometry": {
        "type": "Point",
        "coordinates": [
          111.59898450895868,
          45.10285399281406
        ]
      }
    },
    {
      "type": "Feature",
      "properties": {
        "norad_id": 67149,
        "name": "KUIPER-00241",
        "group": "last-30-days",
        "lat": 35.128788686037744,
        "lon": 93.15826039501277,
        "alt_km": 451.43301639560104,
        "timestamp": "2025-12-26T07:29:17.197248+00:00",
        "meta_object_name": "KUIPER-00241",
        "meta_object_id": "2025-301S",
        "meta_epoch": "2025-12-25T22:00:01.999584",
        "meta_mean_motion": 15.36239494,
        "meta_eccentricity": 0.0002907,
        "meta_inclination": 51.8744,
        "meta_ra_of_asc_node": 61.5243,
        "meta_arg_of_pericenter": 99.3733,
        "meta_mean_anomaly": 280.0657,
        "meta_ephemeris_type": 0,
        "meta_classification_type": "U",
        "meta_norad_cat_id": 67149,
        "meta_element_set_no": 999,
        "meta_rev_at_epoch": 272,
        "meta_bstar": 0.00031250965,
        "meta_mean_motion_dot": 0.0001084,
        "meta_mean_motion_ddot": 0,
        "tle_line1": "1 67149U 25301S   25359.91668981  .00010840  00000+0  31251-3 0  9997",
        "tle_line2": "2 67149  51.8744  61.5243 0002907  99.3733 280.0657 15.36239494  2726"
      },
      "geometry": {
        "type": "Point",
        "coordinates": [
          93.15826039501277,
          35.128788686037744
        ]
      }
    },
    {
      "type": "Feature",
      "properties": {
        "norad_id": 67150,
        "name": "KUIPER-00245",
        "group": "last-30-days",
        "lat": 19.021768511488375,
        "lon": 75.37648920167088,
        "alt_km": 457.4923742838664,
        "timestamp": "2025-12-26T07:29:17.197261+00:00",
        "meta_object_name": "KUIPER-00245",
        "meta_object_id": "2025-301T",
        "meta_epoch": "2025-12-25T22:00:01.999584",
        "meta_mean_motion": 15.35626942,
        "meta_eccentricity": 0.00051078,
        "meta_inclination": 51.8728,
        "meta_ra_of_asc_node": 61.5733,
        "meta_arg_of_pericenter": 120.9627,
        "meta_mean_anomaly": 236.8627,
        "meta_ephemeris_type": 0,
        "meta_classification_type": "U",
        "meta_norad_cat_id": 67150,
        "meta_element_set_no": 999,
        "meta_rev_at_epoch": 187,
        "meta_bstar": 0.00026303874,
        "meta_mean_motion_dot": 8.88e-05,
        "meta_mean_motion_ddot": 0,
        "tle_line1": "1 67150U 25301T   25359.91668981  .00008880  00000+0  26304-3 0  9993",
        "tle_line2": "2 67150  51.8728  61.5733 0005107 120.9627 236.8627 15.35626942  1870"
      },
      "geometry": {
        "type": "Point",
        "coordinates": [
          75.37648920167088,
          19.021768511488375
        ]
      }
    },
    {
      "type": "Feature",
      "properties": {
        "norad_id": 67151,
        "name": "KUIPER-00246",
        "group": "last-30-days",
        "lat": 27.745674924253816,
        "lon": 84.04204888355353,
        "alt_km": 454.4668965983119,
        "timestamp": "2025-12-26T07:29:17.197271+00:00",
        "meta_object_name": "KUIPER-00246",
        "meta_object_id": "2025-301U",
        "meta_epoch": "2025-12-25T22:00:01.999584",
        "meta_mean_motion": 15.35884202,
        "meta_eccentricity": 0.00040587,
        "meta_inclination": 51.8738,
        "meta_ra_of_asc_node": 61.5478,
        "meta_arg_of_pericenter": 117.1118,
        "meta_mean_anomaly": 252.1342,
        "meta_ephemeris_type": 0,
        "meta_classification_type": "U",
        "meta_norad_cat_id": 67151,
        "meta_element_set_no": 999,
        "meta_rev_at_epoch": 241,
        "meta_bstar": 0.00039272036,
        "meta_mean_motion_dot": 0.00013569,
        "meta_mean_motion_ddot": 0,
        "tle_line1": "1 67151U 25301U   25359.91668981  .00013569  00000+0  39272-3 0  9992",
        "tle_line2": "2 67151  51.8738  61.5478 0004058 117.1118 252.1342 15.35884202  2416"
      },
      "geometry": {
        "type": "Point",
        "coordinates": [
          84.04204888355353,
          27.745674924253816
        ]
      }
    }
  ]
}